{
  "type": "FeatureCollection",
  "features": [
    {
      "type": "Feature",
      "properties": {
        "norad_id": 58647,
        "name": "TIANMU-1 13",
        "group": "weather",
        "lat": -25.72547909137282,
        "lon": 14.7754126139148,
        "alt_km": 497.69830114689285,
        "timestamp": "2025-12-17T15:50:09.419933+00:00",
        "meta_object_name": "TIANMU-1 13",
        "meta_object_id": "2023-205C",
        "meta_epoch": "2025-12-17T08:04:24.695616",
        "meta_mean_motion": 15.24583314,
        "meta_eccentricity": 0.00061356,
        "meta_inclination": 97.3618,
        "meta_ra_of_asc_node": 10.8861,
        "meta_arg_of_pericenter": 246.226,
        "meta_mean_anomaly": 113.8334,
        "meta_ephemeris_type": 0,
        "meta_classification_type": "U",
        "meta_norad_cat_id": 58647,
        "meta_element_set_no": 999,
        "meta_rev_at_epoch": 10977,
        "meta_bstar": 0.00022551543,
        "meta_mean_motion_dot": 5.489e-05,
        "meta_mean_motion_ddot": 0,
        "tle_line1": "1 58647U 23205C   25351.33639694  .00005489  00000+0  22552-3 0  9995",
        "tle_line2": "2 58647  97.3618  10.8861 0006135 246.2260 113.8334 15.24583314109770"
      },
      "geometry": {
        "type": "Point",
        "coordinates": [
          14.7754126139148,
          -25.72547909137282
        ]
      }
    },
    {
      "type": "Feature",
      "properties": {
        "norad_id": 58648,
        "name": "TIANMU-1 14",
        "group": "weather",
        "lat": 63.817400389256775,
        "lon": -4.682408199596936,
        "alt_km": 490.5983113511893,
        "timestamp": "2025-12-17T15:50:09.419944+00:00",
        "meta_object_name": "TIANMU-1 14",
        "meta_object_id": "2023-205D",
        "meta_epoch": "2025-12-17T07:40:34.683168",
        "meta_mean_motion": 15.24566708,
        "meta_eccentricity": 0.00069053,
        "meta_inclination": 97.3549,
        "meta_ra_of_asc_node": 10.2144,
        "meta_arg_of_pericenter": 252.5096,
        "meta_mean_anomaly": 107.5387,
        "meta_ephemeris_type": 0,
        "meta_classification_type": "U",
        "meta_norad_cat_id": 58648,
        "meta_element_set_no": 999,
        "meta_rev_at_epoch": 10977,
        "meta_bstar": 0.00021177011,
        "meta_mean_motion_dot": 5.148e-05,
        "meta_mean_motion_ddot": 0,
        "tle_line1": "1 58648U 23205D   25351.31984587  .00005148  00000+0  21177-3 0  9992",
        "tle_line2": "2 58648  97.3549  10.2144 0006905 252.5096 107.5387 15.24566708109770"
      },
      "geometry": {
        "type": "Point",
        "coordinates": [
          -4.682408199596936,
          63.817400389256775
        ]
      }
    },
    {
      "type": "Feature",
      "properties": {
        "norad_id": 58660,
        "name": "TIANMU-1 19",
        "group": "weather",
        "lat": 18.893898004416457,
        "lon": 100.12410525406804,
        "alt_km": 484.80643165269885,
        "timestamp": "2025-12-17T15:50:09.419955+00:00",
        "meta_object_name": "TIANMU-1 19",
        "meta_object_id": "2023-208A",
        "meta_epoch": "2025-12-17T06:19:19.882848",
        "meta_mean_motion": 15.27933844,
        "meta_eccentricity": 0.00042942,
        "meta_inclination": 97.439,
        "meta_ra_of_asc_node": 102.2916,
        "meta_arg_of_pericenter": 232.7038,
        "meta_mean_anomaly": 127.3811,
        "meta_ephemeris_type": 0,
        "meta_classification_type": "U",
        "meta_norad_cat_id": 58660,
        "meta_element_set_no": 999,
        "meta_rev_at_epoch": 10951,
        "meta_bstar": 0.00031273759,
        "meta_mean_motion_dot": 8.454e-05,
        "meta_mean_motion_ddot": 0,
        "tle_line1": "1 58660U 23208A   25351.26342457  .00008454  00000+0  31274-3 0  9999",
        "tle_line2": "2 58660  97.4390 102.2916 0004294 232.7038 127.3811 15.27933844109519"
      },
      "geometry": {
        "type": "Point",
        "coordinates": [
          100.12410525406804,
          18.893898004416457
        ]
      }
    },
    {
      "type": "Feature",
      "properties": {
        "norad_id": 58661,
        "name": "TIANMU-1 20",
        "group": "weather",
        "lat": 64.53349526544174,
        "lon": -60.95099554675098,
        "alt_km": 475.0302935107602,
        "timestamp": "2025-12-17T15:50:09.419965+00:00",
        "meta_object_name": "TIANMU-1 20",
        "meta_object_id": "2023-208B",
        "meta_epoch": "2025-12-17T07:29:03.464160",
        "meta_mean_motion": 15.29124754,
        "meta_eccentricity": 0.00064283,
        "meta_inclination": 97.4327,
        "meta_ra_of_asc_node": 102.7921,
        "meta_arg_of_pericenter": 246.5166,
        "meta_mean_anomaly": 113.5398,
        "meta_ephemeris_type": 0,
        "meta_classification_type": "U",
        "meta_norad_cat_id": 58661,
        "meta_element_set_no": 999,
        "meta_rev_at_epoch": 10959,
        "meta_bstar": 0.00028170537,
        "meta_mean_motion_dot": 7.893e-05,
        "meta_mean_motion_ddot": 0,
        "tle_line1": "1 58661U 23208B   25351.31184565  .00007893  00000+0  28171-3 0  9998",
        "tle_line2": "2 58661  97.4327 102.7921 0006428 246.5166 113.5398 15.29124754109596"
      },
      "geometry": {
        "type": "Point",
        "coordinates": [
          -60.95099554675098,
          64.53349526544174
        ]
      }
    },
    {
      "type": "Feature",
      "properties": {
        "norad_id": 58662,
        "name": "TIANMU-1 21",
        "group": "weather",
        "lat": 16.116155025504803,
        "lon": -72.76672839750304,
        "alt_km": 470.64267200807353,
        "timestamp": "2025-12-17T15:50:09.419975+00:00",
        "meta_object_name": "TIANMU-1 21",
        "meta_object_id": "2023-208C",
        "meta_epoch": "2025-12-17T07:17:00.746304",
        "meta_mean_motion": 15.31649563,
        "meta_eccentricity": 0.00060463,
        "meta_inclination": 97.4375,
        "meta_ra_of_asc_node": 104.7125,
        "meta_arg_of_pericenter": 240.8183,
        "meta_mean_anomaly": 119.2454,
        "meta_ephemeris_type": 0,
        "meta_classification_type": "U",
        "meta_norad_cat_id": 58662,
        "meta_element_set_no": 999,
        "meta_rev_at_epoch": 10969,
        "meta_bstar": 0.00030137805,
        "meta_mean_motion_dot": 9.138e-05,
        "meta_mean_motion_ddot": 0,
        "tle_line1": "1 58662U 23208C   25351.30348086  .00009138  00000+0  30138-3 0  9998",
        "tle_line2": "2 58662  97.4375 104.7125 0006046 240.8183 119.2454 15.31649563109690"
      },
      "geometry": {
        "type": "Point",
        "coordinates": [
          -72.76672839750304,
          16.116155025504803
        ]
      }
    },
    {
      "type": "Feature",
      "properties": {
        "norad_id": 58663,
        "name": "TIANMU-1 22",
        "group": "weather",
        "lat": 15.723748828121767,
        "lon": 100.63614828216551,
        "alt_km": 484.32359550039564,
        "timestamp": "2025-12-17T15:50:09.419985+00:00",
        "meta_object_name": "TIANMU-1 22",
        "meta_object_id": "2023-208D",
        "meta_epoch": "2025-12-17T06:20:04.658784",
        "meta_mean_motion": 15.27682165,
        "meta_eccentricity": 0.0002686,
        "meta_inclination": 97.4384,
        "meta_ra_of_asc_node": 102.3492,
        "meta_arg_of_pericenter": 262.9576,
        "meta_mean_anomaly": 97.1357,
        "meta_ephemeris_type": 0,
        "meta_classification_type": "U",
        "meta_norad_cat_id": 58663,
        "meta_element_set_no": 999,
        "meta_rev_at_epoch": 10952,
        "meta_bstar": 0.00029021473,
        "meta_mean_motion_dot": 7.778e-05,
        "meta_mean_motion_ddot": 0,
        "tle_line1": "1 58663U 23208D   25351.26394281  .00007778  00000+0  29021-3 0  9999",
        "tle_line2": "2 58663  97.4384 102.3492 0002686 262.9576  97.1357 15.27682165109527"
      },
      "geometry": {
        "type": "Point",
        "coordinates": [
          100.63614828216551,
          15.723748828121767
        ]
      }
    },
    {
      "type": "Feature",
      "properties": {
        "norad_id": 58700,
        "name": "TIANMU-1 15",
        "group": "weather",
        "lat": 82.5174020426916,
        "lon": 86.73876157388031,
        "alt_km": 488.561720404271,
        "timestamp": "2025-12-17T15:50:09.419995+00:00",
        "meta_object_name": "TIANMU-1 15",
        "meta_object_id": "2024-004A",
        "meta_epoch": "2025-12-15T13:02:10.173984",
        "meta_mean_motion": 15.24523626,
        "meta_eccentricity": 0.00056536,
        "meta_inclination": 97.4626,
        "meta_ra_of_asc_node": 171.0022,
        "meta_arg_of_pericenter": 279.9728,
        "meta_mean_anomaly": 80.0871,
        "meta_ephemeris_type": 0,
        "meta_classification_type": "U",
        "meta_norad_cat_id": 58700,
        "meta_element_set_no": 999,
        "meta_rev_at_epoch": 10777,
        "meta_bstar": 0.00021318175,
        "meta_mean_motion_dot": 5.174e-05,
        "meta_mean_motion_ddot": 0,
        "tle_line1": "1 58700U 24004A   25349.54317331  .00005174  00000+0  21318-3 0  9994",
        "tle_line2": "2 58700  97.4626 171.0022 0005653 279.9728  80.0871 15.24523626107774"
      },
      "geometry": {
        "type": "Point",
        "coordinates": [
          86.73876157388031,
          82.5174020426916
        ]
      }
    }
  ]
}